NORAD_CAT_ID,OBJECT_NAME,OBJECT_TYPE,EPOCH,MEAN_MOTION,ECCENTRICITY,INCLINATION,RA_OF_ASC_NODE,ARG_OF_PERICENTER,MEAN_ANOMALY,BSTAR,MEAN_MOTION_DOT,MEAN_MOTION_DDOT,TLE_LINE0,TLE_LINE1,TLE_LINE2,SEMIMAJOR_AXIS,PERIOD,APOGEE,PERIGEE,DECAYED
49757.0,STARLINK-3197,PAYLOAD,2024-07-30 09:30:32,15.08842279,0.0001551,53.2162,255.5941,95.8246,264.2923,9.3203e-05,1.196e-05,0.0,0 STARLINK-3197,1 49757U 21115AK  24212.39620888  .00001196  00000-0  93203-4 0  9995,2 49757  53.2162 255.5941 0001551  95.8246 264.2923 15.08842279147017,6917.873,95.437,540.811,538.665,0.0
49757.0,STARLINK-3197,PAYLOAD,2024-07-31 09:21:18,15.08850178,0.0001475,53.2156,251.1353,90.9704,269.1457,0.0001321,1.816e-05,0.0,0 STARLINK-3197,1 49757U 21115AK  24213.38980126  .00001816  00000-0  13210-3 0  9997,2 49757  53.2156 251.1353 0001475  90.9704 269.1457 15.08850178147168,6917.849,95.437,540.735,538.694,0.0
49757.0,STARLINK-3197,PAYLOAD,2024-08-01 12:22:52,15.08840543,0.00014,53.215,246.0793,89.9098,270.2054,2.4011e-05,9.4e-07,0.0,0 STARLINK-3197,1 49757U 21115AK  24214.51588922  .00000094  00000-0  24011-4 0  9990,2 49757  53.2150 246.0793 0001400  89.9098 270.2054 15.08840543148448,6917.879,95.438,540.712,538.775,0.0
49757.0,STARLINK-3197,PAYLOAD,2024-08-02 12:13:39,15.08840919,0.0001372,53.2152,241.6195,89.1351,270.9799,4.6008e-06,-2.15e-06,0.0,0 STARLINK-3197,1 49757U 21115AK  24215.50949006 -.00000215  00000-0  46008-5 0  9991,2 49757  53.2152 241.6195 0001372  89.1351 270.9799 15.08840919147482,6917.878,95.437,540.692,538.793,0.0
49757.0,STARLINK-3197,PAYLOAD,2024-08-02 18:35:12,15.08836271,0.0001318,53.2149,240.4294,87.3741,272.7402,4.6361e-05,4.5e-06,0.0,0 STARLINK-3197,1 49757U 21115AK  24215.77445312  .00000450  00000-0  46361-4 0  9992,2 49757  53.2149 240.4294 0001318  87.3741 272.7402 15.08836271148633,6917.892,95.438,540.669,538.845,0.0
49757.0,STARLINK-3197,PAYLOAD,2024-08-03 10:29:03,15.08840444,0.000137,53.2148,237.4559,92.4968,267.6181,8.9059e-05,1.13e-05,0.0,0 STARLINK-3197,1 49757U 21115AK  24216.43685174  .00001130  00000-0  89059-4 0  9995,2 49757  53.2148 237.4559 0001370  92.4968 267.6181 15.08840444147620,6917.879,95.438,540.692,538.796,0.0
49757.0,STARLINK-3197,PAYLOAD,2024-08-03 18:25:59,15.08839345,0.000138,53.2149,235.9691,90.912,269.203,6.5971e-05,7.62e-06,0.0,0 STARLINK-3197,1 49757U 21115AK  24216.76805338  .00000762  00000-0  65971-4 0  9994,2 49757  53.2149 235.9691 0001380  90.9120 269.2030 15.08839345147679,6917.882,95.438,540.702,538.793,0.0
49757.0,STARLINK-3197,PAYLOAD,2024-08-04 05:33:42,15.0882076,0.0001527,53.2156,233.8872,81.4069,278.7096,0.00029343,4.383e-05,0.0,0 STARLINK-3197,1 49757U 21115AK  24217.23173914  .00004383  00000-0  29343-3 0  9990,2 49757  53.2156 233.8872 0001527  81.4069 278.7096 15.08820760148854,6917.939,95.439,540.861,538.748,0.0
49757.0,STARLINK-3197,PAYLOAD,2024-08-04 10:19:51,15.08835107,0.0001427,53.2153,232.9956,85.1646,274.9509,0.00016613,2.357e-05,0.0,0 STARLINK-3197,1 49757U 21115AK  24217.43045567  .00002357  00000-0  16613-3 0  9999,2 49757  53.2153 232.9956 0001427  85.1646 274.9509 15.08835107148886,6917.895,95.438,540.748,538.773,0.0
49757.0,STARLINK-3197,PAYLOAD,2024-08-04 18:16:46,15.08851665,0.0001482,53.2156,231.5087,85.6754,274.4407,-0.00018233,-3.19e-05,0.0,0 STARLINK-3197,1 49757U 21115AK  24217.76165332 -.00003190  00000-0 -18233-3 0  9996,2 49757  53.2156 231.5087 0001482  85.6754 274.4407 15.08851665147827,6917.845,95.437,540.735,538.685,0.0
49757.0,STARLINK-3197,PAYLOAD,2024-08-05 18:07:34,15.0883608,0.0001505,53.2153,227.0487,88.9313,271.1851,4.3102e-06,-2.19e-06,0.0,0 STARLINK-3197,1 49757U 21115AK  24218.75526223 -.00000219  00000-0  43102-5 0  9999,2 49757  53.2153 227.0487 0001505  88.9313 271.1851 15.08836080149082,6917.892,95.438,540.799,538.716,0.0
49757.0,STARLINK-3197,PAYLOAD,2024-08-06 06:50:39,15.08834103,0.0001468,53.2149,224.6691,88.4555,271.6605,2.0979e-05,4.6e-07,0.0,0 STARLINK-3197,1 49757U 21115AK  24219.28518409  .00000046  00000-0  20979-4 0  9998,2 49757  53.2149 224.6691 0001468  88.4555 271.6605 15.08834103148050,6917.898,95.438,540.779,538.748,0.0
49757.0,STARLINK-3197,PAYLOAD,2024-08-06 17:58:19,15.0885879,0.0001637,53.2156,222.5877,84.6581,275.4598,0.00021159,3.083e-05,0.0,0 STARLINK-3197,1 49757U 21115AK  24219.74883924  .00003083  00000-0  21159-3 0  9990,2 49757  53.2156 222.5877 0001637  84.6581 275.4598 15.08858790149238,6917.823,95.436,540.82,538.556,0.0
49757.0,STARLINK-3197,PAYLOAD,2024-08-08 09:42:59,15.0884702,0.0001724,53.2159,215.1514,103.6743,256.4441,0.0001101,1.465e-05,0.0,0 STARLINK-3197,1 49757U 21115AK  24221.40485103  .00001465  00000-0  11010-3 0  9990,2 49757  53.2159 215.1514 0001724 103.6743 256.4441 15.08847020148370,6917.859,95.437,540.917,538.531,0.0
49757.0,STARLINK-3197,PAYLOAD,2024-08-09 06:23:00,15.08834722,0.0001222,53.2155,211.2874,99.0536,261.0595,0.00012748,1.741e-05,0.0,0 STARLINK-3197,1 49757U 21115AK  24222.26597873  .00001741  00000-0  12748-3 0  9999,2 49757  53.2155 211.2874 0001222  99.0536 261.0595 15.08834722149618,6917.897,95.438,540.607,538.916,0.0
49757.0,STARLINK-3197,PAYLOAD,2024-08-09 15:55:19,15.08836673,0.0001299,53.2159,209.5046,97.3778,262.7362,7.0985e-05,8.42e-06,0.0,0 STARLINK-3197,1 49757U 21115AK  24222.66342096  .00000842  00000-0  70985-4 0  9997,2 49757  53.2159 209.5046 0001299  97.3778 262.7362 15.08836673148566,6917.891,95.438,540.654,538.857,0.0
49757.0,STARLINK-3197,PAYLOAD,2024-08-10 04:38:24,15.0884136,0.0001405,53.216,207.127,109.6623,250.4521,-1.2097e-05,-4.8e-06,0.0,0 STARLINK-3197,1 49757U 21115AK  24223.19334142 -.00000480  00000-0 -12097-4 0  9999,2 49757  53.2160 207.1270 0001405 109.6623 250.4521 15.08841360148645,6917.876,95.437,540.713,538.769,0.0
49757.0,STARLINK-3197,PAYLOAD,2024-08-11 02:53:48,15.08841115,0.0001455,53.2164,202.9642,111.2082,248.9065,0.00011401,1.527e-05,0.0,0 STARLINK-3197,1 49757U 21115AK  24224.12070021  .00001527  00000-0  11401-3 0  9994,2 49757  53.2164 202.9642 0001455 111.2082 248.9065 15.08841115149899,6917.877,95.437,540.749,538.735,0.0
49757.0,STARLINK-3197,PAYLOAD,2024-08-11 07:39:57,15.08850354,0.000136,53.2156,202.0701,104.315,255.7993,0.00022327,3.268e-05,0.0,0 STARLINK-3197,1 49757U 21115AK  24224.31941300  .00003268  00000-0  22327-3 0  9995,2 49757  53.2156 202.0701 0001360 104.3150 255.7993 15.08850354149926,6917.849,95.437,540.655,538.773,0.0
49757.0,STARLINK-3197,PAYLOAD,2024-08-11 15:36:53,15.08841129,0.0001861,53.216,200.5849,85.9374,274.1831,0.00010928,1.452e-05,0.0,0 STARLINK-3197,1 49757U 21115AK  24224.65062197  .00001452  00000-0  10928-3 0  9997,2 49757  53.2160 200.5849 0001861  85.9374 274.1831 15.08841129149976,6917.877,95.437,541.029,538.455,0.0
49757.0,STARLINK-3197,PAYLOAD,2024-08-11 21:58:26,15.0884317,0.0001804,53.2158,199.3939,85.5583,274.5615,0.00016216,2.294e-05,0.0,0 STARLINK-3197,1 49757U 21115AK  24224.91558094  .00002294  00000-0  16216-3 0  9993,2 49757  53.2158 199.3939 0001804  85.5583 274.5615 15.08843170148907,6917.871,95.437,540.984,538.488,0.0
49757.0,STARLINK-3197,PAYLOAD,2024-08-12 04:19:57,15.08867182,0.0001404,53.2148,198.1988,107.8535,252.2611,0.00045994,7.045e-05,0.0,0 STARLINK-3197,1 49757U 21115AK  24225.18052494  .00007045  00000-0  45994-3 0  9990,2 49757  53.2148 198.1988 0001404 107.8535 252.2611 15.08867182150055,6917.797,95.436,540.634,538.691,0.0
49757.0,STARLINK-3197,PAYLOAD,2024-08-12 07:30:43,15.088742,0.0001279,53.2147,197.6032,107.5733,252.5399,0.0006546,0.00010155,0.0,0 STARLINK-3197,1 49757U 21115AK  24225.31300248  .00010155  00000-0  65460-3 0  9994,2 49757  53.2147 197.6032 0001279 107.5733 252.5399 15.08874200148967,6917.776,95.435,540.526,538.756,0.0
49757.0,STARLINK-3197,PAYLOAD,2024-08-12 21:49:12,15.08850993,0.0001251,53.2147,194.9316,102.2913,257.8219,5.5366e-05,5.94e-06,0.0,0 STARLINK-3197,1 49757U 21115AK  24225.90916729  .00000594  00000-0  55366-4 0  9997,2 49757  53.2147 194.9316 0001251 102.2913 257.8219 15.08850993150161,6917.847,95.437,540.577,538.846,0.0
49757.0,STARLINK-3197,PAYLOAD,2024-08-13 12:07:40,15.08819223,0.0001257,53.2149,192.255,98.9218,261.1917,-0.0006744,-0.00010999,0.0,0 STARLINK-3197,1 49757U 21115AK  24226.50533276 -.00010999  00000-0 -67440-3 0  9993,2 49757  53.2149 192.2550 0001257  98.9218 261.1917 15.08819223150253,6917.944,95.439,540.678,538.939,0.0
49757.0,STARLINK-3197,PAYLOAD,2024-08-13 21:39:59,15.08815807,0.0001403,53.2134,190.4731,83.4878,276.6274,-0.00058917,-9.646e-05,0.0,0 STARLINK-3197,1 49757U 21115AK  24226.90277678 -.00009646  00000-0 -58917-3 0  9994,2 49757  53.2134 190.4731 0001403  83.4878 276.6274 15.08815807149206,6917.954,95.439,540.79,538.849,0.0
49757.0,STARLINK-3197,PAYLOAD,2024-08-14 04:01:32,15.08816923,0.0001382,53.2138,189.2832,86.1427,273.9723,-0.00021649,-3.729e-05,0.0,0 STARLINK-3197,1 49757U 21115AK  24227.16774181 -.00003729  00000-0 -21649-3 0  9992,2 49757  53.2138 189.2832 0001382  86.1427 273.9723 15.08816923150351,6917.951,95.439,540.772,538.86,0.0
49757.0,STARLINK-3197,PAYLOAD,2024-08-14 11:58:29,15.08817744,0.0001355,53.2142,187.796,89.9285,270.1863,0.0010256,0.00016062,0.0,0 STARLINK-3197,1 49757U 21115AK  24227.49894950  .00016062  00000-0  10256-2 0  9998,2 49757  53.2142 187.7960 0001355  89.9285 270.1863 15.08817744149291,6917.948,95.439,540.751,538.876,0.0
49757.0,STARLINK-3197,PAYLOAD,2024-08-14 15:09:15,15.08822917,0.0001352,53.2142,187.2012,91.015,269.0997,0.001047,0.00016406,0.0,0 STARLINK-3197,1 49757U 21115AK  24227.63143091  .00016406  00000-0  10470-2 0  9997,2 49757  53.2142 187.2012 0001352  91.0150 269.0997 15.08822917149312,6917.933,95.439,540.733,538.862,0.0
49757.0,STARLINK-3197,PAYLOAD,2024-08-15 03:52:20,15.08843435,0.0001355,53.2144,184.8217,92.6845,267.4303,0.001129,0.00017727,0.0,0 STARLINK-3197,1 49757U 21115AK  24228.16135222  .00017727  00000-0  11290-2 0  9991,2 49757  53.2144 184.8217 0001355  92.6845 267.4303 15.08843435150509,6917.87,95.437,540.672,538.798,0.0
